ONEWEB-0236             
1 48797U 21045AG  26200.19597883  .00000057  00000+0  11820-3 0  9993
2 48797  87.8975 252.8280 0002083  94.0293 266.1076 13.15548506248468
ONEWEB-0248             
1 48798U 21045AH  26200.66499098  .00000130  00000+0  31091-3 0  9999
2 48798  87.8996 252.7210 0002381 103.1906 256.9490 13.15548759248689
ONEWEB-0225             
1 48799U 21045AJ  26200.68718516  .00000045  00000+0  86531-4 0  9996
2 48799  87.8987 252.7238 0002299 110.7160 249.4217 13.15548224248696
ONEWEB-0215             
1 48800U 21045AK  26200.20072153  .00000050  00000+0  99948-4 0  9999
2 48800  87.8987 252.8050 0002484 111.6154 248.5242 13.15549762248507
ONEWEB-0216             
1 48801U 21045AL  26200.66658485  .00000089  00000+0  20293-3 0  9996
2 48801  87.8987 252.7259 0001937  96.5957 263.5394 13.15548359248575
ONEWEB-0239             
1 48802U 21045AM  26200.67134125  .00000113  00000+0  26592-3 0  9994
2 48802  87.8968 252.7283 0002770 107.5792 252.5641 13.15548019248619
ONEWEB-0249             
1 48967U 21060A   26200.50358097  .00000077  00000+0  16820-3 0  9993
2 48967  87.9075 222.3588 0002145  93.7175 266.4201 13.16592317243868
ONEWEB-0250             
1 48968U 21060B   26200.75865007  .00000038  00000+0  55553-4 0  9999
2 48968  87.9079 219.9580 0003020  81.5454 278.6024 13.25835640244537
ONEWEB-0252             
1 48970U 21060D   26200.45846696 -.00000028  00000+0 -10675-3 0  9998
2 48970  87.9080 222.3598 0001879  96.6456 263.4889 13.16595585243900
ONEWEB-0253             
1 48971U 21060E   26200.44738560  .00000105  00000+0  23991-3 0  9997
2 48971  87.9076 222.3670 0002166  91.0609 269.0771 13.16595633243834
ONEWEB-0254             
1 48972U 21060F   26200.76088213  .00000077  00000+0  16805-3 0  9990
2 48972  87.9081 222.3032 0002306  97.7816 262.3576 13.16595387243871
ONEWEB-0255             
1 48973U 21060G   26200.79888109 -.00000046  00000+0 -15380-3 0  9991
2 48973  87.9076 222.3019 0002188  96.8198 263.3182 13.16593770243959
ONEWEB-0256             
1 48974U 21060H   26200.52102319  .00000026  00000+0  35486-4 0  9991
2 48974  87.9075 222.3596 0001920  94.6178 265.5172 13.16595235243889
ONEWEB-0257             
1 48975U 21060J   26200.47747655 -.00000059  00000+0 -18789-3 0  9998
2 48975  87.9076 222.3568 0002052  97.2478 262.8887 13.16594083243837
ONEWEB-0258             
1 48976U 21060K   26200.78303348 -.00002521  00000+0 -66278-2 0  9991
2 48976  87.9073 222.3078 0002313  90.6938 269.4458 13.16605332243881
ONEWEB-0259             
1 48977U 21060L   26200.47272686 -.00000047  00000+0 -15674-3 0  9994
2 48977  87.9077 222.3688 0002268  94.1410 265.9980 13.16593930243876
ONEWEB-0260             
1 48978U 21060M   26200.76798669 -.00000014  00000+0 -69490-4 0  9991
2 48978  87.9074 222.3101 0001686  94.8032 265.3291 13.16592826243898
ONEWEB-0261             
1 48979U 21060N   26200.50993965  .00000053  00000+0  10448-3 0  9999
2 48979  87.9074 222.3626 0002100 102.1242 258.0124 13.16593869243914
ONEWEB-0262             
1 48980U 21060P   26200.11015780  .00000028  00000+0  40006-4 0  9994
2 48980  87.9078 222.4289 0002343  93.8305 266.3094 13.16593900243825
ONEWEB-0263             
1 48981U 21060Q   26200.82579484  .00000081  00000+0  17734-3 0  9999
2 48981  87.9081 222.2984 0002263 101.3420 258.7965 13.16593882243881
ONEWEB-0264             
1 48982U 21060R   26200.78699627 -.00000071  00000+0 -21874-3 0  9998
2 48982  87.9073 222.3078 0001994  98.2278 261.9079 13.16592384243881
ONEWEB-0266             
1 48984U 21060T   26200.80836218  .00000071  00000+0  15195-3 0  9999
2 48984  87.9076 222.2954 0002081  90.9092 269.2278 13.16595579243879
ONEWEB-0267             
1 48985U 21060U   26200.51547510  .00000051  00000+0  10012-3 0  9993
2 48985  87.9080 222.3504 0002062  98.9591 261.1773 13.16594115243841
ONEWEB-0268             
1 48986U 21060V   26200.78778153 -.00000044  00000+0 -14802-3 0  9997
2 48986  87.9077 222.3057 0001941  92.5669 267.5684 13.16593648244147
ONEWEB-0269             
1 48987U 21060W   26200.76879720 -.00000045  00000+0 -15250-3 0  9997
2 48987  87.9075 222.3093 0001927  88.8879 271.2472 13.16594119243916
ONEWEB-0270             
1 48988U 21060X   26200.78619670 -.00000043  00000+0 -14487-3 0  9995
2 48988  87.9077 222.3075 0002402  98.2039 261.9364 13.16592167243952
ONEWEB-0271             
1 48989U 21060Y   26200.77354824  .00000007  00000+0 -14268-4 0  9999
2 48989  87.9075 222.2994 0002168  99.0535 261.0842 13.16594475243955
ONEWEB-0272             
1 48990U 21060Z   26200.79570235 -.00000045  00000+0 -15092-3 0  9997
2 48990  87.9069 222.3059 0001848  98.8464 261.2876 13.16595432243903
ONEWEB-0273             
1 48991U 21060AA  26200.51387143 -.00000745  00000+0 -19821-2 0  9992
2 48991  87.9071 222.3624 0002051  97.1458 262.9906 13.16601677243841
ONEWEB-0274             
1 48992U 21060AB  26200.76719603 -.00000021  00000+0 -87418-4 0  9996
2 48992  87.9071 222.3117 0001767  96.3158 263.8175 13.16595571243911
