OBJECT_NAME,OBJECT_ID,EPOCH,MEAN_MOTION,ECCENTRICITY,INCLINATION,RA_OF_ASC_NODE,ARG_OF_PERICENTER,MEAN_ANOMALY,EPHEMERIS_TYPE,CLASSIFICATION_TYPE,NORAD_CAT_ID,ELEMENT_SET_NO,REV_AT_EPOCH,BSTAR,MEAN_MOTION_DOT,MEAN_MOTION_DDOT
ONEWEB-0236,2021-045AG,2026-07-19T04:42:12.570912,13.15548506,.00020837,87.8975,252.8280,94.0293,266.1076,0,U,48797,999,24846,.11819896E-3,.57E-6,0
ONEWEB-0248,2021-045AH,2026-07-19T15:57:35.220672,13.15548759,.0002381,87.8996,252.7210,103.1906,256.9490,0,U,48798,999,24868,.31091E-3,.13E-5,0
ONEWEB-0225,2021-045AJ,2026-07-19T16:29:32.797824,13.15548224,.0002299,87.8987,252.7238,110.7160,249.4217,0,U,48799,999,24869,.86531E-4,.45E-6,0
ONEWEB-0215,2021-045AK,2026-07-19T04:49:02.340192,13.15549762,.00024848,87.8987,252.8050,111.6154,248.5242,0,U,48800,999,24850,.99947794E-4,.5E-6,0
ONEWEB-0216,2021-045AL,2026-07-19T15:59:52.931040,13.15548359,.0001937,87.8987,252.7259,96.5957,263.5394,0,U,48801,999,24857,.20293E-3,.89E-6,0
ONEWEB-0239,2021-045AM,2026-07-19T16:06:43.884000,13.15548019,.000277,87.8968,252.7283,107.5792,252.5641,0,U,48802,999,24861,.26592E-3,.113E-5,0
ONEWEB-0249,2021-060A,2026-07-19T12:05:09.395808,13.16592317,.00021458,87.9075,222.3588,93.7175,266.4201,0,U,48967,999,24386,.16820496E-3,.77E-6,0
ONEWEB-0250,2021-060B,2026-07-19T18:12:27.366048,13.25835640,.000302,87.9079,219.9580,81.5454,278.6024,0,U,48968,999,24453,.55553E-4,.38E-6,0
ONEWEB-0252,2021-060D,2026-07-19T11:00:11.545344,13.16595585,.00018793,87.9080,222.3598,96.6456,263.4889,0,U,48970,999,24390,-.10674964E-3,-.28E-6,0
ONEWEB-0253,2021-060E,2026-07-19T10:44:14.115840,13.16595633,.0002166,87.9076,222.3670,91.0609,269.0771,0,U,48971,999,24383,.23991023E-3,.105E-5,0
ONEWEB-0254,2021-060F,2026-07-19T18:15:40.216032,13.16595387,.0002306,87.9081,222.3032,97.7816,262.3576,0,U,48972,999,24387,.16805E-3,.77E-6,0
ONEWEB-0255,2021-060G,2026-07-19T19:10:23.326176,13.16593770,.0002188,87.9076,222.3019,96.8198,263.3182,0,U,48973,999,24395,-.1538E-3,-.46E-6,0
ONEWEB-0256,2021-060H,2026-07-19T12:30:16.403616,13.16595235,.00019206,87.9075,222.3596,94.6178,265.5172,0,U,48974,999,24388,.35486111E-4,.26E-6,0
ONEWEB-0257,2021-060J,2026-07-19T11:27:33.973920,13.16594083,.00020527,87.9076,222.3568,97.2478,262.8887,0,U,48975,999,24383,-.18788838E-3,-.59E-6,0
ONEWEB-0258,2021-060K,2026-07-19T18:47:34.092672,13.16605332,.0002313,87.9073,222.3078,90.6938,269.4458,0,U,48976,999,24388,-.66278E-2,-.2521E-4,0
ONEWEB-0259,2021-060L,2026-07-19T11:20:43.600704,13.16593930,.00022689,87.9077,222.3688,94.1410,265.9980,0,U,48977,999,24387,-.15673978E-3,-.47E-6,0
ONEWEB-0260,2021-060M,2026-07-19T18:25:54.050016,13.16592826,.0001686,87.9074,222.3101,94.8032,265.3291,0,U,48978,999,24389,-.6949E-4,-.14E-6,0
ONEWEB-0261,2021-060N,2026-07-19T12:14:18.785760,13.16593869,.00021006,87.9074,222.3626,102.1242,258.0124,0,U,48979,999,24391,.10448138E-3,.53E-6,0
ONEWEB-0262,2021-060P,2026-07-19T02:38:37.633920,13.16593900,.00023438,87.9078,222.4289,93.8305,266.3094,0,U,48980,999,24382,.40005771E-4,.28E-6,0
ONEWEB-0263,2021-060Q,2026-07-19T19:49:08.674176,13.16593882,.0002263,87.9081,222.2984,101.3420,258.7965,0,U,48981,999,24388,.17734E-3,.81E-6,0
ONEWEB-0264,2021-060R,2026-07-19T18:53:16.477728,13.16592384,.0001994,87.9073,222.3078,98.2278,261.9079,0,U,48982,999,24388,-.21874E-3,-.71E-6,0
ONEWEB-0266,2021-060T,2026-07-19T19:24:02.492352,13.16595579,.0002081,87.9076,222.2954,90.9092,269.2278,0,U,48984,999,24387,.15195E-3,.71E-6,0
ONEWEB-0267,2021-060U,2026-07-19T12:22:17.048640,13.16594115,.00020626,87.9080,222.3504,98.9591,261.1773,0,U,48985,999,24384,.10011635E-3,.51E-6,0
ONEWEB-0268,2021-060V,2026-07-19T18:54:24.324192,13.16593648,.0001941,87.9077,222.3057,92.5669,267.5684,0,U,48986,999,24414,-.14802E-3,-.44E-6,0
ONEWEB-0269,2021-060W,2026-07-19T18:27:04.078080,13.16594119,.0001927,87.9075,222.3093,88.8879,271.2472,0,U,48987,999,24391,-.1525E-3,-.45E-6,0
ONEWEB-0270,2021-060X,2026-07-19T18:52:07.394880,13.16592167,.0002402,87.9077,222.3075,98.2039,261.9364,0,U,48988,999,24395,-.14487E-3,-.43E-6,0
ONEWEB-0271,2021-060Y,2026-07-19T18:33:54.567936,13.16594475,.0002168,87.9075,222.2994,99.0535,261.0842,0,U,48989,999,24395,-.14268E-4,.7E-7,0
ONEWEB-0272,2021-060Z,2026-07-19T19:05:48.683040,13.16595432,.0001848,87.9069,222.3059,98.8464,261.2876,0,U,48990,999,24390,-.15092E-3,-.45E-6,0
ONEWEB-0273,2021-060AA,2026-07-19T12:19:58.491552,13.16601677,.00020517,87.9071,222.3624,97.1458,262.9906,0,U,48991,999,24384,-.19821433E-2,-.745E-5,0
ONEWEB-0274,2021-060AB,2026-07-19T18:24:45.736992,13.16595571,.0001767,87.9071,222.3117,96.3158,263.8175,0,U,48992,999,24391,-.87418E-4,-.21E-6,0
